[Satellite]
VERSION=1.1
NAME=VZLUSAT 1
NICKNAME=VZLUSAT 1
TLE1=1 42790U 17036AB  22342.01294785  .00044515  00000+0  10456-2 0  9994
TLE2=2 42790  97.1787  24.2674 0008261  56.3185 303.8849 15.41854009303900
STATUS=0
